{
  "type": "FeatureCollection",
  "features": [
    {
      "type": "Feature",
      "properties": {
        "nama": "Teluk Ambon (batas perairan aproksimasi)",
        "keterangan": "Digambar manual untuk simulasi prototipe. Ganti dengan garis pantai BIG atau OpenStreetMap untuk versi produksi."
      },
      "geometry": {
        "type": "Polygon",
        "coordinates": [[
          [128.040, -3.745], [128.060, -3.725], [128.085, -3.708], [128.105, -3.700],
          [128.125, -3.693], [128.148, -3.682], [128.168, -3.670], [128.185, -3.661],
          [128.198, -3.660], [128.203, -3.651], [128.212, -3.643], [128.222, -3.634],
          [128.234, -3.627], [128.246, -3.626], [128.254, -3.632], [128.252, -3.641],
          [128.240, -3.648], [128.228, -3.654], [128.215, -3.661], [128.204, -3.668],
          [128.190, -3.678], [128.178, -3.693], [128.165, -3.708], [128.145, -3.725],
          [128.120, -3.742], [128.090, -3.760], [128.050, -3.775], [128.040, -3.745]
        ]]
      }
    }
  ]
}
